P/2011 W1 (PANSTARRS),e,3.7186,161.7846,282.7615,4.664714,0.0978288,0.28784091,13.9140,06/30.0/2022,2000,g 11.5,4.0
# From MPC 79342
P/2011 Y2 (Boattini),e,6.3756,309.3409,131.9307,6.238706,0.0632503,0.71006020,238.4606,06/30.0/2022,2000,g 15.0,4.0
# From MPEC 2022-K19
P/2012 B1 (PANSTARRS),e,7.6102,36.2164,162.4312,6.531454,0.0590458,0.40894016,193.3545,06/30.0/2022,2000,g  9.0,4.0
# From MPC 78590
P/2012 C3 (PANSTARRS),e,9.0920,135.3677,344.9542,9.748681,0.0323806,0.63011148,359.9758,10/06.0/2011,2000,g 13.0,4.0
# From MPC 84931
P/2012 F2 (PANSTARRS),e,14.7040,226.9955,33.3249,6.334253,0.0618246,0.54138176,208.2197,06/30.0/2022,2000,g 12.0,4.0
# From MPEC 2022-ED3
P/2012 G1 (PANSTARRS),e,12.1742,283.2787,266.0943,4.164775,0.1159623,0.32957081,73.9573,06/30.0/2022,2000,g 15.0,4.0
# From MPC 80898
P/2012 K3 (Gibbs),e,13.1920,125.8160,172.2363,3.627602,0.1426509,0.42285830,149.4585,06/30.0/2022,2000,g 15.0,4.0
# From MPC 88326
P/2012 NJ (La Sagra),e,84.6190,315.5684,338.3774,8.464912,0.0400194,0.84687637,146.7573,06/30.0/2022,2000,g 14.5,4.0
# From MPC 81470
P/2012 O1 (McNaught),e,7.4283,91.9484,238.3004,3.541382,0.1478920,0.59445936,179.7060,06/30.0/2022,2000,g 17.5,4.0
# From MPC 80899
P/2012 O2 (McNaught),e,24.4764,120.6843,183.4699,3.625542,0.1427725,0.53229101,164.3271,06/30.0/2022,2000,g 17.0,4.0
# From MPEC 2022-K19
P/2012 O3 (McNaught),e,16.6156,336.4142,344.7517,4.574529,0.1007360,0.64718932,3.1468,06/30.0/2022,2000,g 16.5,4.0
# From MPC 82320
P/2012 T2 (PANSTARRS),e,12.5648,73.7156,310.6336,5.730411,0.0718498,0.16208926,240.7422,06/30.0/2022,2000,g 10.0,4.0
# From MPC 80900
P/2012 T3 (PANSTARRS),e,9.5618,114.3848,195.5234,6.151006,0.0646078,0.61697282,239.5194,06/30.0/2022,2000,g 15.0,4.0
# From MPEC 2022-L66
C/2012 T4 (McNaught),e,24.1094,99.3260,219.9527,222.9014,0.0002962,0.99124222,0.0000,10/15.1765/2012,2000,g 13.5,4.0
# From MPC 82720
P/2012 U2 (PANSTARRS),e,10.7591,185.3222,228.2414,7.134174,0.0517236,0.49951533,181.8575,06/30.0/2022,2000,g 12.5,4.0
# From MPC 84024
P/2012 US27 (Siding Spring),e,39.3635,49.1985,0.8104,5.165698,0.0839480,0.64809990,289.1182,06/30.0/2022,2000,g 13.5,4.0
# From MPEC 2022-L66
C/2012 V1 (PANSTARRS),e,157.8349,85.5243,123.6606,1557,0.0000160,0.99864070,0.0000,07/18.4606/2013,2000,g 12.0,4.0
# From MPC 82721
P/2012 WA34 (Lemmon-PANSTARRS),e,6.0791,93.6028,356.3728,4.689919,0.0970412,0.34477286,323.8285,06/30.0/2022,2000,g 13.5,4.0
# From MPC 82721
P/2013 AL76 (Catalina),e,144.8595,145.9992,27.0504,6.498096,0.0595011,0.68622878,207.9843,06/30.0/2022,2000,g 16.0,4.0
# From MPEC 2022-K19
P/2013 EW90,e,31.7922,160.2946,346.1385,4.113692,0.1181290,0.19464733,59.1212,06/30.0/2022,2000,g 14.3,4.0
# From MPC 91612
P/2013 G1 (Kowalski),e,5.4597,221.3317,51.5291,6.895034,0.0544377,0.51174296,170.0124,06/30.0/2022,2000,g 11.0,4.0
# From MPC 84025
P/2013 G4 (PANSTARRS),e,5.9162,339.6378,214.6440,4.439664,0.1053608,0.40934606,1.1210,06/30.0/2022,2000,g 15.0,4.0
# From MPEC 2022-L66
C/2013 G5 (Catalina),e,40.8529,143.9293,165.9239,2800,0.0000067,0.99966822,0.0000,09/04.3245/2013,2000,g 14.0,4.0
# From MPC 91613
P/2013 J2 (McNaught),e,15.5182,289.3741,37.8330,6.222768,0.0634934,0.65755876,204.7725,06/30.0/2022,2000,g 13.0,4.0
# From MPC 86229
P/2013 N3 (PANSTARRS),e,2.1740,17.4647,323.9540,7.393596,0.0490253,0.59324966,149.7215,06/30.0/2022,2000,g 13.0,4.0
# From MPC 85834
P/2013 N5 (PANSTARRS),e,23.4594,187.1554,176.9275,6.797250,0.0556166,0.73250287,182.4513,06/30.0/2022,2000,g 17.0,4.0
# From MPC 85834
P/2013 P1 (PANSTARRS),e,18.7254,160.5891,138.2374,8.578943,0.0392241,0.60509590,133.6667,06/30.0/2022,2000,g 12.0,4.0
# From MPC 94671
P/2013 R3 (Catalina-PANSTARRS),e,0.8649,341.9848,11.2569,3.032622,0.1866279,0.27554251,242.5894,06/30.0/2022,2000,g 14.0,4.0
# From unp
P/2013 R3-A (Catalina-PANSTARRS),e,0.8643,341.9516,11.2960,3.032480,0.1866411,0.27551214,242.6293,06/30.0/2022,2000,g  9.0,4.0
# From MPEC 2015-M77
P/2013 R3-B (Catalina-PANSTARRS),e,0.8655,342.0075,11.2308,3.032699,0.1866208,0.27555745,242.5681,06/30.0/2022,2000,g  9.0,4.0
# From MPC 85835
P/2013 T1 (PANSTARRS),e,24.3022,10.0803,346.1464,5.857818,0.0695185,0.62427810,225.9076,06/30.0/2022,2000,g 16.5,4.0
# From MPC 86643
P/2013 T2 (Schwartz),e,9.4578,0.7998,345.5639,3.491366,0.1510814,0.50119929,142.3358,06/30.0/2022,2000,g 16.0,4.0
# From MPC 91613
P/2013 W1 (PANSTARRS),e,4.6958,117.8436,1.2441,3.488186,0.1512880,0.59275584,99.5163,06/30.0/2022,2000,g 17.5,4.0
# From MPC101095
P/2013 YG46 (Spacewatch),e,7.8573,48.8363,242.5889,3.274436,0.1663410,0.45472298,328.3515,06/30.0/2022,2000,g 10.0,4.0
# From MPC 89728
P/2014 A2 (Hill),e,24.5392,106.6304,356.1550,5.927532,0.0682957,0.64545182,217.5075,06/30.0/2022,2000,g 15.0,4.0
# From MPC 92981
P/2014 A3 (PANSTARRS),e,13.7129,229.9780,214.0157,4.611251,0.0995350,0.24695272,330.5724,06/30.0/2022,2000,g 12.0,4.0
# From MPEC 2022-L66
C/2014 A5 (PANSTARRS),e,31.9733,310.0755,182.1034,80.75545,0.0013581,0.94076267,3.9174,06/30.0/2022,2000,g 10.0,4.0
# From MPEC 2022-HC2
C/2014 B1 (Schwartz),e,28.4116,161.4228,345.6413,4010,0.0000039,0.99761988,0.0000,09/06.2976/2017,2000,g  4.0,4.0
# From MPC102095
P/2014 C1 (TOTAS),e,2.6926,167.8040,23.8896,3.034398,0.1864641,0.45022783,218.5472,06/30.0/2022,2000,g 15.5,4.0
# From MPEC 2022-L66
C/2014 F2 (Tenagra),e,119.0093,267.3938,85.9944,153.5333,0.0005181,0.97200052,0.0000,01/05.4260/2015,2000,g  9.5,4.0
# From MPC 94280
C/2014 F3 (Sheppard-Trujillo),e,6.5616,326.5792,4.0650,14.82510,0.0172666,0.61589225,6.9760,06/30.0/2022,2000,g  6.0,4.0
# From MPEC 2022-M21
C/2014 G1 (PANSTARRS),e,165.6769,337.9637,77.4029,799.7436,0.0000436,0.99312713,0.0000,11/09.3731/2013,2000,g  9.0,4.0
# From MPC 98560
P/2014 L2 (NEOWISE),e,5.1998,149.3473,182.7020,6.304526,0.0622623,0.64814424,180.5857,06/30.0/2022,2000,g 12.0,4.0
# From MPC 90769
P/2014 L3 (Hill),e,6.2716,115.4854,178.6972,8.175833,0.0421605,0.77310166,123.1427,06/30.0/2022,2000,g 16.0,4.0
# From MPEC 2022-M88
C/2014 M2 (Christensen),e,32.3594,245.3672,40.6110,3307,0.0000052,0.99790012,0.0000,07/15.6176/2014,2000,g  6.0,4.0
# From MPC 91614
P/2014 M4 (PANSTARRS),e,3.3409,263.2057,148.0040,5.869894,0.0693041,0.59524536,189.9802,06/30.0/2022,2000,g 15.0,4.0
# From MPEC 2022-K19
P/2014 MG4 (Spacewatch-PANSTARRS),e,9.3686,311.7324,299.0725,5.012862,0.0878164,0.25907193,289.6917,06/30.0/2022,2000,g  9.5,4.0
# From MPC 98560
P/2014 O3 (PANSTARRS),e,7.7992,87.6433,204.7545,7.573316,0.0472906,0.38500778,141.5557,06/30.0/2022,2000,g 10.5,4.0
# From MPEC 2022-C56
C/2014 OG392 (PANSTARRS),e,9.0328,145.7957,254.2168,12.24690,0.0229967,0.18594247,4.8016,06/30.0/2022,2000,g  6.0,4.0
# From MPEC 2022-M21
P/2014 R5 (Lemmon-PANSTARRS),e,1.0883,126.5639,213.7361,4.058842,0.1205316,0.41414069,354.1165,06/30.0/2022,2000,g 15.0,4.0
# From MPEC 2022-M21
C/2014 S1 (PANSTARRS),e,123.6718,352.6221,288.6730,40960,0.0000001,0.99980139,0.0000,10/24.7986/2013,2000,g  7.0,4.0
# From MPEC 2022-L66
C/2014 S3 (PANSTARRS),e,169.3189,355.9426,292.9145,82.91152,0.0013055,0.97523302,0.0000,08/07.7478/2014,2000,g 17.0,4.0
# From MPEC 2022-M21
C/2014 U3 (Kowalski),e,152.8695,163.5665,50.8355,339.7457,0.0001574,0.99252366,0.0000,08/31.7954/2014,2000,g 14.5,4.0
# From MPC 91616
P/2014 U4 (PANSTARRS),e,6.4292,11.8846,347.8038,3.507878,0.1500159,0.46493731,75.2154,06/30.0/2022,2000,g 18.0,4.0
# From MPC 95211
P/2014 V1 (PANSTARRS),e,22.5278,166.2005,177.6331,5.479724,0.0768362,0.53452344,208.3327,06/30.0/2022,2000,g 14.0,4.0
# From MPC 93586
P/2014 W1 (PANSTARRS),e,8.8367,246.2396,152.1565,4.464961,0.1044666,0.38914733,303.8588,06/30.0/2022,2000,g 15.5,4.0
# From MPC105542
P/2014 W4 (PANSTARRS),e,15.2816,33.3815,67.6381,6.591060,0.0582467,0.35287591,138.2864,06/30.0/2022,2000,g 11.0,4.0
# From MPEC 2022-L66
C/2014 W5 (Lemmon-PANSTARRS),e,145.6773,245.6140,281.6528,106.1596,0.0009011,0.97722557,0.0000,02/08.7590/2016,2000,g 10.0,4.0
# From MPC 94281
P/2014 X1 (Elenin),e,26.0366,61.5473,33.8876,6.206157,0.0637485,0.70921465,174.5178,06/30.0/2022,2000,g 15.0,4.0
# From MPC 92275
P/2015 A3 (PANSTARRS),e,172.5375,277.2742,249.3936,7.813316,0.0451285,0.85053398,121.3969,06/30.0/2022,2000,g 20.0,4.0
# From MPC 99270
P/2015 B1 (PANSTARRS),e,18.0468,352.9423,188.8994,9.493746,0.0336936,0.36679809,83.6941,06/30.0/2022,2000,g  8.5,4.0
# From MPC109141
P/2015 B4 (Lemmon-PANSTARRS),e,1.7621,266.0461,227.3169,8.520698,0.0396270,0.56026227,107.1808,06/30.0/2022,2000,g 11.0,4.0
# From MPC101096
P/2015 C1 (TOTAS-Gibbs),e,13.9094,348.7983,178.1592,6.577321,0.0584293,0.56056975,153.3527,06/30.0/2022,2000,g 12.5,4.0
# From MPC109141
P/2015 D5 (Kowalski),e,20.5243,74.0667,39.7109,8.957735,0.0367626,0.48948637,110.7580,06/30.0/2022,2000,g  9.0,4.0
# From MPC 96866
P/2015 D6 (Lemmon-PANSTARRS),e,20.2034,45.8964,125.0597,7.138425,0.0516774,0.36125749,132.2626,06/30.0/2022,2000,g 10.5,4.0
# From MPEC 2022-L66
C/2015 F4 (Jacques),e,48.6913,285.9154,36.4240,121.7307,0.0007338,0.98648785,0.0000,08/12.9903/2015,2000,g 11.0,4.0
# From MPEC 2021-P47
P/2015 HG16 (PANSTARRS),e,18.8012,57.7941,47.7063,4.764891,0.0947599,0.35234517,279.9950,06/30.0/2022,2000,g 12.5,4.0
# From MPC 95213
P/2015 K5 (PANSTARRS),e,39.9445,134.1948,106.3473,6.725362,0.0565107,0.55224280,146.0711,06/30.0/2022,2000,g 13.5,4.0
# From MPC107684
P/2015 M2 (PANSTARRS),e,3.9704,86.5856,225.8810,7.239635,0.0505975,0.18027328,125.5639,06/30.0/2022,2000,g  8.5,4.0
# From MPEC 2021-P47
C/2015 O1 (PANSTARRS),h,02/20.1494/2018,127.1963,299.8392,89.5728,1.001524,3.723507,2000,6.5,4.0
# From MPC 99819
P/2015 P4 (PANSTARRS),e,8.7174,104.7079,280.6256,6.047037,0.0662812,0.58556604,155.7879,06/30.0/2022,2000,g 14.0,4.0
# From MPEC 2022-K19
P/2015 PD229 (Cameron-ISON),e,2.0257,342.6462,352.6361,7.189864,0.0511238,0.32789868,128.2277,06/30.0/2022,2000,g 11.5,2.0
# From MPC 96867
P/2015 Q2 (Pimentel),e,146.5380,228.5066,244.6129,7.352808,0.0494338,0.75054122,123.0164,06/30.0/2022,2000,g 15.5,4.0
# From MPC 98562
